{
  "alarm": false,
  "ana_sentinel_esigi_m2": 250,
  "feature_count": 25,
  "features": [
    {
      "geometry": {
        "coordinates": [
          26.499034,
          38.18095
        ],
        "type": "Point"
      },
      "id": "cesme:38.180950:26.499034",
      "properties": {
        "alan_m2": 16002,
        "alarm": false,
        "arka_plan": true,
        "bolge": "cesme",
        "eski_tarih": "2026-09-18",
        "harita_katmani": "SAR_DUSUK_KANIT_ARKA_PLAN",
        "hedef_katmani": "ANA_250_PLUS",
        "kaynak": "coverage_blind_area_audit.json",
        "mahalle_yaklasik": "Mevki doğrulanmadı",
        "mikro_guclu_diagnostik": false,
        "mikro_saha_dogrulandi": false,
        "neden": "KARISIK_GECERSIZLIK",
        "onceki_sar_lokal_degisim_skor_db": null,
        "saha_dogrulanmis_yikim_onculu": false,
        "saha_gorevi": false,
        "saha_oncul_gorev_id": null,
        "saha_oncul_son_tarih": null,
        "sar_cevre_degisim_konservatif_db": 0.256,
        "sar_cevre_degisim_tepe_db": 0.365,
        "sar_kaynak_tipi": "BOLGESEL_RTC",
        "sar_lokal_degisim_skor_db": 0.067,
        "sar_mekansal_ayrim": "KARISIK_DUSUK_LOKALLIK",
        "sar_polarizasyon_uyumu": "CIFT_POL_ZAYIF",
        "temporal_durum": null,
        "yeni_tarih": "2026-09-24"
      },
      "type": "Feature"
    },
    {
      "geometry": {
        "coordinates": [
          26.526165,
          38.19723
        ],
        "type": "Point"
      },
      "id": "cesme:38.197230:26.526165",
      "properties": {
        "alan_m2": 12301,
        "alarm": false,
        "arka_plan": true,
        "bolge": "cesme",
        "eski_tarih": "2026-09-18",
        "harita_katmani": "SAR_DUSUK_KANIT_ARKA_PLAN",
        "hedef_katmani": "ANA_250_PLUS",
        "kaynak": "coverage_blind_area_audit.json",
        "mahalle_yaklasik": "Mevki doğrulanmadı",
        "mikro_guclu_diagnostik": false,
        "mikro_saha_dogrulandi": false,
        "neden": "BULUT_GOLGE_KALICI",
        "onceki_sar_lokal_degisim_skor_db": null,
        "saha_dogrulanmis_yikim_onculu": false,
        "saha_gorevi": false,
        "saha_oncul_gorev_id": null,
        "saha_oncul_son_tarih": null,
        "sar_cevre_degisim_konservatif_db": 0.123,
        "sar_cevre_degisim_tepe_db": 0.633,
        "sar_kaynak_tipi": "BOLGESEL_RTC",
        "sar_lokal_degisim_skor_db": 0.369,
        "sar_mekansal_ayrim": "KARISIK_DUSUK_LOKALLIK",
        "sar_polarizasyon_uyumu": "CIFT_POL_ZAYIF",
        "temporal_durum": null,
        "yeni_tarih": "2026-09-24"
      },
      "type": "Feature"
    },
    {
      "geometry": {
        "coordinates": [
          26.528569,
          38.203562
        ],
        "type": "Point"
      },
      "id": "cesme:38.203562:26.528569",
      "properties": {
        "alan_m2": 22802,
        "alarm": false,
        "arka_plan": true,
        "bolge": "cesme",
        "eski_tarih": "2026-09-18",
        "harita_katmani": "SAR_DUSUK_KANIT_ARKA_PLAN",
        "hedef_katmani": "ANA_250_PLUS",
        "kaynak": "coverage_blind_area_audit.json",
        "mahalle_yaklasik": "Mevki doğrulanmadı",
        "mikro_guclu_diagnostik": false,
        "mikro_saha_dogrulandi": false,
        "neden": "BULUT_GOLGE_KALICI",
        "onceki_sar_lokal_degisim_skor_db": null,
        "saha_dogrulanmis_yikim_onculu": false,
        "saha_gorevi": false,
        "saha_oncul_gorev_id": null,
        "saha_oncul_son_tarih": null,
        "sar_cevre_degisim_konservatif_db": 0.59,
        "sar_cevre_degisim_tepe_db": 0.592,
        "sar_kaynak_tipi": "BOLGESEL_RTC",
        "sar_lokal_degisim_skor_db": 0.737,
        "sar_mekansal_ayrim": "KARISIK_DUSUK_LOKALLIK",
        "sar_polarizasyon_uyumu": "CIFT_POL_ZAYIF",
        "temporal_durum": null,
        "yeni_tarih": "2026-09-24"
      },
      "type": "Feature"
    },
    {
      "geometry": {
        "coordinates": [
          26.401387,
          38.243902
        ],
        "type": "Point"
      },
      "id": "cesme:38.243902:26.401387",
      "properties": {
        "alan_m2": 19202,
        "alarm": false,
        "arka_plan": true,
        "bolge": "cesme",
        "eski_tarih": "2026-09-18",
        "harita_katmani": "SAR_DUSUK_KANIT_ARKA_PLAN",
        "hedef_katmani": "ANA_250_PLUS",
        "kaynak": "coverage_blind_area_audit.json",
        "mahalle_yaklasik": "Mevki doğrulanmadı",
        "mikro_guclu_diagnostik": false,
        "mikro_saha_dogrulandi": false,
        "neden": "KARISIK_GECERSIZLIK",
        "onceki_sar_lokal_degisim_skor_db": null,
        "saha_dogrulanmis_yikim_onculu": false,
        "saha_gorevi": false,
        "saha_oncul_gorev_id": null,
        "saha_oncul_son_tarih": null,
        "sar_cevre_degisim_konservatif_db": 0.254,
        "sar_cevre_degisim_tepe_db": 0.323,
        "sar_kaynak_tipi": "BOLGESEL_RTC",
        "sar_lokal_degisim_skor_db": 0.29,
        "sar_mekansal_ayrim": "KARISIK_DUSUK_LOKALLIK",
        "sar_polarizasyon_uyumu": "CIFT_POL_ZAYIF",
        "temporal_durum": null,
        "yeni_tarih": "2026-09-24"
      },
      "type": "Feature"
    },
    {
      "geometry": {
        "coordinates": [
          26.29149,
          38.261178
        ],
        "type": "Point"
      },
      "id": "cesme:38.261178:26.291490",
      "properties": {
        "alan_m2": 14801,
        "alarm": false,
        "arka_plan": true,
        "bolge": "cesme",
        "eski_tarih": "2026-09-18",
        "harita_katmani": "SAR_DUSUK_KANIT_ARKA_PLAN",
        "hedef_katmani": "ANA_250_PLUS",
        "kaynak": "coverage_blind_area_audit.json",
        "mahalle_yaklasik": "Çiftlikköy",
        "mikro_guclu_diagnostik": false,
        "mikro_saha_dogrulandi": false,
        "neden": "KARISIK_GECERSIZLIK",
        "onceki_sar_lokal_degisim_skor_db": null,
        "saha_dogrulanmis_yikim_onculu": false,
        "saha_gorevi": false,
        "saha_oncul_gorev_id": null,
        "saha_oncul_son_tarih": null,
        "sar_cevre_degisim_konservatif_db": 0.052,
        "sar_cevre_degisim_tepe_db": 1.325,
        "sar_kaynak_tipi": "BOLGESEL_RTC",
        "sar_lokal_degisim_skor_db": 0.135,
        "sar_mekansal_ayrim": "KARISIK_DUSUK_LOKALLIK",
        "sar_polarizasyon_uyumu": "CIFT_POL_ZAYIF",
        "temporal_durum": null,
        "yeni_tarih": "2026-09-24"
      },
      "type": "Feature"
    },
    {
      "geometry": {
        "coordinates": [
          26.378949,
          38.261992
        ],
        "type": "Point"
      },
      "id": "cesme:38.261992:26.378949",
      "properties": {
        "alan_m2": 12401,
        "alarm": false,
        "arka_plan": true,
        "bolge": "cesme",
        "eski_tarih": "2026-09-18",
        "harita_katmani": "SAR_DUSUK_KANIT_ARKA_PLAN",
        "hedef_katmani": "ANA_250_PLUS",
        "kaynak": "coverage_blind_area_audit.json",
        "mahalle_yaklasik": "Alaçatı",
        "mikro_guclu_diagnostik": false,
        "mikro_saha_dogrulandi": false,
        "neden": "KARISIK_GECERSIZLIK",
        "onceki_sar_lokal_degisim_skor_db": null,
        "saha_dogrulanmis_yikim_onculu": false,
        "saha_gorevi": false,
        "saha_oncul_gorev_id": null,
        "saha_oncul_son_tarih": null,
        "sar_cevre_degisim_konservatif_db": 0.182,
        "sar_cevre_degisim_tepe_db": 0.897,
        "sar_kaynak_tipi": "BOLGESEL_RTC",
        "sar_lokal_degisim_skor_db": 0.07,
        "sar_mekansal_ayrim": "KARISIK_DUSUK_LOKALLIK",
        "sar_polarizasyon_uyumu": "CIFT_POL_ZAYIF",
        "temporal_durum": null,
        "yeni_tarih": "2026-09-24"
      },
      "type": "Feature"
    },
    {
      "geometry": {
        "coordinates": [
          26.290574,
          38.317437
        ],
        "type": "Point"
      },
      "id": "cesme:38.317437:26.290574",
      "properties": {
        "alan_m2": 14001,
        "alarm": false,
        "arka_plan": true,
        "bolge": "cesme",
        "eski_tarih": "2026-09-18",
        "harita_katmani": "SAR_DUSUK_KANIT_ARKA_PLAN",
        "hedef_katmani": "ANA_250_PLUS",
        "kaynak": "coverage_blind_area_audit.json",
        "mahalle_yaklasik": "Musalla",
        "mikro_guclu_diagnostik": false,
        "mikro_saha_dogrulandi": false,
        "neden": "BULUT_GOLGE_KALICI",
        "onceki_sar_lokal_degisim_skor_db": null,
        "saha_dogrulanmis_yikim_onculu": false,
        "saha_gorevi": false,
        "saha_oncul_gorev_id": null,
        "saha_oncul_son_tarih": null,
        "sar_cevre_degisim_konservatif_db": 0.315,
        "sar_cevre_degisim_tepe_db": 0.988,
        "sar_kaynak_tipi": "BOLGESEL_RTC",
        "sar_lokal_degisim_skor_db": 0.026,
        "sar_mekansal_ayrim": "KARISIK_DUSUK_LOKALLIK",
        "sar_polarizasyon_uyumu": "CIFT_POL_ZAYIF",
        "temporal_durum": null,
        "yeni_tarih": "2026-09-24"
      },
      "type": "Feature"
    },
    {
      "geometry": {
        "coordinates": [
          26.473392,
          38.349636
        ],
        "type": "Point"
      },
      "id": "cesme:38.349636:26.473392",
      "properties": {
        "alan_m2": 200,
        "alarm": false,
        "arka_plan": false,
        "bolge": "cesme",
        "eski_tarih": "2026-09-18",
        "harita_katmani": "SAR_MIKRO_DIAGNOSTIK",
        "hedef_katmani": "MIKRO_DIAGNOSTIK",
        "kaynak": "micro_site_decision_review.json",
        "mahalle_yaklasik": "Mevki doğrulanmadı",
        "mikro_guclu_diagnostik": true,
        "mikro_saha_dogrulandi": false,
        "neden": "MIKRO_GUCLU_DIAGNOSTIK",
        "onceki_sar_lokal_degisim_skor_db": null,
        "saha_dogrulanmis_yikim_onculu": false,
        "saha_gorevi": false,
        "saha_oncul_gorev_id": null,
        "saha_oncul_son_tarih": null,
        "sar_cevre_degisim_konservatif_db": 0.507,
        "sar_cevre_degisim_tepe_db": 0.926,
        "sar_kaynak_tipi": "BOLGESEL_RTC",
        "sar_lokal_degisim_skor_db": 0.287,
        "sar_mekansal_ayrim": "KARISIK_DUSUK_LOKALLIK",
        "sar_polarizasyon_uyumu": "CIFT_POL_ZAYIF",
        "temporal_durum": null,
        "yeni_tarih": "2026-09-24"
      },
      "type": "Feature"
    },
    {
      "geometry": {
        "coordinates": [
          26.517808,
          38.388982
        ],
        "type": "Point"
      },
      "id": "cesme:38.388982:26.517808",
      "properties": {
        "alan_m2": 76007,
        "alarm": false,
        "arka_plan": true,
        "bolge": "cesme",
        "eski_tarih": "2026-09-18",
        "harita_katmani": "SAR_DUSUK_KANIT_ARKA_PLAN",
        "hedef_katmani": "ANA_250_PLUS",
        "kaynak": "coverage_blind_area_audit.json",
        "mahalle_yaklasik": "Mevki doğrulanmadı",
        "mikro_guclu_diagnostik": false,
        "mikro_saha_dogrulandi": false,
        "neden": "BULUT_GOLGE_KALICI",
        "onceki_sar_lokal_degisim_skor_db": null,
        "saha_dogrulanmis_yikim_onculu": false,
        "saha_gorevi": false,
        "saha_oncul_gorev_id": null,
        "saha_oncul_son_tarih": null,
        "sar_cevre_degisim_konservatif_db": 0.512,
        "sar_cevre_degisim_tepe_db": 0.545,
        "sar_kaynak_tipi": "BOLGESEL_RTC",
        "sar_lokal_degisim_skor_db": 0.369,
        "sar_mekansal_ayrim": "KARISIK_DUSUK_LOKALLIK",
        "sar_polarizasyon_uyumu": "CIFT_POL_ZAYIF",
        "temporal_durum": null,
        "yeni_tarih": "2026-09-24"
      },
      "type": "Feature"
    },
    {
      "geometry": {
        "coordinates": [
          26.656588,
          38.328833
        ],
        "type": "Point"
      },
      "id": "gulbahce:38.328833:26.656588",
      "properties": {
        "alan_m2": 400,
        "alarm": false,
        "arka_plan": true,
        "bolge": "gulbahce",
        "eski_tarih": "2026-09-18",
        "harita_katmani": "SAR_DUSUK_KANIT_ARKA_PLAN",
        "hedef_katmani": "ANA_250_PLUS",
        "kaynak": "gulbahce_latest_state_blind_review.json",
        "mahalle_yaklasik": "Gulbahce",
        "mikro_guclu_diagnostik": false,
        "mikro_saha_dogrulandi": false,
        "neden": "BULUT",
        "onceki_sar_lokal_degisim_skor_db": null,
        "saha_dogrulanmis_yikim_onculu": false,
        "saha_gorevi": false,
        "saha_oncul_gorev_id": null,
        "saha_oncul_son_tarih": null,
        "sar_cevre_degisim_konservatif_db": 0.13,
        "sar_cevre_degisim_tepe_db": 0.14,
        "sar_kaynak_tipi": "BOLGESEL_RTC",
        "sar_lokal_degisim_skor_db": 0.174,
        "sar_mekansal_ayrim": "KARISIK_DUSUK_LOKALLIK",
        "sar_polarizasyon_uyumu": "CIFT_POL_ZAYIF",
        "temporal_durum": null,
        "yeni_tarih": "2026-09-24"
      },
      "type": "Feature"
    },
    {
      "geometry": {
        "coordinates": [
          26.655443,
          38.329919
        ],
        "type": "Point"
      },
      "id": "gulbahce:38.329919:26.655443",
      "properties": {
        "alan_m2": 1200,
        "alarm": false,
        "arka_plan": true,
        "bolge": "gulbahce",
        "eski_tarih": "2026-09-18",
        "harita_katmani": "SAR_DUSUK_KANIT_ARKA_PLAN",
        "hedef_katmani": "ANA_250_PLUS",
        "kaynak": "gulbahce_latest_state_blind_review.json",
        "mahalle_yaklasik": "Gulbahce",
        "mikro_guclu_diagnostik": false,
        "mikro_saha_dogrulandi": false,
        "neden": "BULUT",
        "onceki_sar_lokal_degisim_skor_db": null,
        "saha_dogrulanmis_yikim_onculu": false,
        "saha_gorevi": false,
        "saha_oncul_gorev_id": null,
        "saha_oncul_son_tarih": null,
        "sar_cevre_degisim_konservatif_db": 0.273,
        "sar_cevre_degisim_tepe_db": 0.499,
        "sar_kaynak_tipi": "BOLGESEL_RTC",
        "sar_lokal_degisim_skor_db": 0.171,
        "sar_mekansal_ayrim": "KARISIK_DUSUK_LOKALLIK",
        "sar_polarizasyon_uyumu": "CIFT_POL_ZAYIF",
        "temporal_durum": null,
        "yeni_tarih": "2026-09-24"
      },
      "type": "Feature"
    },
    {
      "geometry": {
        "coordinates": [
          26.644338,
          38.331547
        ],
        "type": "Point"
      },
      "id": "gulbahce:38.331547:26.644338",
      "properties": {
        "alan_m2": 400,
        "alarm": false,
        "arka_plan": false,
        "bolge": "gulbahce",
        "eski_tarih": "2026-09-18",
        "harita_katmani": "SAR_SAHA_ONCUL",
        "hedef_katmani": "SAHA_ONCUL_SAR_DIAGNOSTIK",
        "kaynak": "santiye.db",
        "mahalle_yaklasik": "Gulbahce",
        "mikro_guclu_diagnostik": false,
        "mikro_saha_dogrulandi": false,
        "neden": "SAHA_DOGRULANMIS_YIKIM_ONCULU",
        "onceki_sar_lokal_degisim_skor_db": null,
        "saha_dogrulanmis_yikim_onculu": true,
        "saha_gorevi": false,
        "saha_oncul_gorev_id": "UEC44340AEC",
        "saha_oncul_son_tarih": "08.09.2026",
        "sar_cevre_degisim_konservatif_db": 0.47,
        "sar_cevre_degisim_tepe_db": 1.339,
        "sar_kaynak_tipi": "BOLGESEL_RTC",
        "sar_lokal_degisim_skor_db": 0.031,
        "sar_mekansal_ayrim": "KARISIK_DUSUK_LOKALLIK",
        "sar_polarizasyon_uyumu": "CIFT_POL_ZAYIF",
        "temporal_durum": null,
        "yeni_tarih": "2026-09-24"
      },
      "type": "Feature"
    },
    {
      "geometry": {
        "coordinates": [
          26.643308,
          38.341225
        ],
        "type": "Point"
      },
      "id": "gulbahce:38.341225:26.643308",
      "properties": {
        "alan_m2": 400,
        "alarm": false,
        "arka_plan": true,
        "bolge": "gulbahce",
        "eski_tarih": "2026-09-18",
        "harita_katmani": "SAR_GENIS_YUZEY_ARKA_PLAN",
        "hedef_katmani": "ANA_250_PLUS",
        "kaynak": "gulbahce_latest_state_blind_review.json",
        "mahalle_yaklasik": "Gulbahce",
        "mikro_guclu_diagnostik": false,
        "mikro_saha_dogrulandi": false,
        "neden": "BULUT",
        "onceki_sar_lokal_degisim_skor_db": null,
        "saha_dogrulanmis_yikim_onculu": false,
        "saha_gorevi": false,
        "saha_oncul_gorev_id": null,
        "saha_oncul_son_tarih": null,
        "sar_cevre_degisim_konservatif_db": 1.111,
        "sar_cevre_degisim_tepe_db": 2.226,
        "sar_kaynak_tipi": "BOLGESEL_RTC",
        "sar_lokal_degisim_skor_db": 1.205,
        "sar_mekansal_ayrim": "TEK_POL_CEVRE_DEGISIMI",
        "sar_polarizasyon_uyumu": "CIFT_POL_ORTA",
        "temporal_durum": null,
        "yeni_tarih": "2026-09-24"
      },
      "type": "Feature"
    },
    {
      "geometry": {
        "coordinates": [
          26.643079,
          38.341586
        ],
        "type": "Point"
      },
      "id": "gulbahce:38.341586:26.643079",
      "properties": {
        "alan_m2": 400,
        "alarm": false,
        "arka_plan": true,
        "bolge": "gulbahce",
        "eski_tarih": "2026-09-18",
        "harita_katmani": "SAR_GENIS_YUZEY_ARKA_PLAN",
        "hedef_katmani": "ANA_250_PLUS",
        "kaynak": "gulbahce_latest_state_blind_review.json",
        "mahalle_yaklasik": "Gulbahce",
        "mikro_guclu_diagnostik": false,
        "mikro_saha_dogrulandi": false,
        "neden": "BULUT",
        "onceki_sar_lokal_degisim_skor_db": null,
        "saha_dogrulanmis_yikim_onculu": false,
        "saha_gorevi": false,
        "saha_oncul_gorev_id": null,
        "saha_oncul_son_tarih": null,
        "sar_cevre_degisim_konservatif_db": 0.673,
        "sar_cevre_degisim_tepe_db": 2.178,
        "sar_kaynak_tipi": "BOLGESEL_RTC",
        "sar_lokal_degisim_skor_db": 0.913,
        "sar_mekansal_ayrim": "TEK_POL_CEVRE_DEGISIMI",
        "sar_polarizasyon_uyumu": "TEK_POL_BASKIN",
        "temporal_durum": null,
        "yeni_tarih": "2026-09-24"
      },
      "type": "Feature"
    },
    {
      "geometry": {
        "coordinates": [
          26.642621,
          38.34231
        ],
        "type": "Point"
      },
      "id": "gulbahce:38.342310:26.642621",
      "properties": {
        "alan_m2": 400,
        "alarm": false,
        "arka_plan": true,
        "bolge": "gulbahce",
        "eski_tarih": "2026-09-18",
        "harita_katmani": "SAR_DUSUK_KANIT_ARKA_PLAN",
        "hedef_katmani": "ANA_250_PLUS",
        "kaynak": "gulbahce_latest_state_blind_review.json",
        "mahalle_yaklasik": "Gulbahce",
        "mikro_guclu_diagnostik": false,
        "mikro_saha_dogrulandi": false,
        "neden": "BULUT",
        "onceki_sar_lokal_degisim_skor_db": null,
        "saha_dogrulanmis_yikim_onculu": false,
        "saha_gorevi": false,
        "saha_oncul_gorev_id": null,
        "saha_oncul_son_tarih": null,
        "sar_cevre_degisim_konservatif_db": 0.497,
        "sar_cevre_degisim_tepe_db": 1.445,
        "sar_kaynak_tipi": "BOLGESEL_RTC",
        "sar_lokal_degisim_skor_db": 1.112,
        "sar_mekansal_ayrim": "KARISIK_DUSUK_LOKALLIK",
        "sar_polarizasyon_uyumu": "CIFT_POL_ORTA",
        "temporal_durum": null,
        "yeni_tarih": "2026-09-24"
      },
      "type": "Feature"
    },
    {
      "geometry": {
        "coordinates": [
          26.64159,
          38.343938
        ],
        "type": "Point"
      },
      "id": "gulbahce:38.343938:26.641590",
      "properties": {
        "alan_m2": 400,
        "alarm": false,
        "arka_plan": true,
        "bolge": "gulbahce",
        "eski_tarih": "2026-09-18",
        "harita_katmani": "SAR_DUSUK_KANIT_ARKA_PLAN",
        "hedef_katmani": "ANA_250_PLUS",
        "kaynak": "gulbahce_latest_state_blind_review.json",
        "mahalle_yaklasik": "Gulbahce",
        "mikro_guclu_diagnostik": false,
        "mikro_saha_dogrulandi": false,
        "neden": "BULUT",
        "onceki_sar_lokal_degisim_skor_db": null,
        "saha_dogrulanmis_yikim_onculu": false,
        "saha_gorevi": false,
        "saha_oncul_gorev_id": null,
        "saha_oncul_son_tarih": null,
        "sar_cevre_degisim_konservatif_db": 0.039,
        "sar_cevre_degisim_tepe_db": 0.201,
        "sar_kaynak_tipi": "BOLGESEL_RTC",
        "sar_lokal_degisim_skor_db": 0.929,
        "sar_mekansal_ayrim": "KARISIK_DUSUK_LOKALLIK",
        "sar_polarizasyon_uyumu": "CIFT_POL_ZAYIF",
        "temporal_durum": null,
        "yeni_tarih": "2026-09-24"
      },
      "type": "Feature"
    },
    {
      "geometry": {
        "coordinates": [
          26.641132,
          38.346923
        ],
        "type": "Point"
      },
      "id": "gulbahce:38.346923:26.641132",
      "properties": {
        "alan_m2": 400,
        "alarm": false,
        "arka_plan": false,
        "bolge": "gulbahce",
        "eski_tarih": "2026-09-18",
        "harita_katmani": "SAR_GUCLU_LOKAL",
        "hedef_katmani": "ANA_250_PLUS",
        "kaynak": "gulbahce_latest_state_blind_review.json",
        "mahalle_yaklasik": "Gulbahce",
        "mikro_guclu_diagnostik": false,
        "mikro_saha_dogrulandi": false,
        "neden": "BULUT",
        "onceki_sar_lokal_degisim_skor_db": 3.327,
        "saha_dogrulanmis_yikim_onculu": false,
        "saha_gorevi": false,
        "saha_oncul_gorev_id": null,
        "saha_oncul_son_tarih": null,
        "sar_cevre_degisim_konservatif_db": 0.123,
        "sar_cevre_degisim_tepe_db": 0.14,
        "sar_kaynak_tipi": "BOLGESEL_RTC",
        "sar_lokal_degisim_skor_db": 2.102,
        "sar_mekansal_ayrim": "KOMPAKT_LOKAL_DESTEKLI",
        "sar_polarizasyon_uyumu": "CIFT_POL_GUCLU",
        "temporal_durum": "ARDISIK_GUCLU_LOKAL_HAREKET",
        "yeni_tarih": "2026-09-24"
      },
      "type": "Feature"
    },
    {
      "geometry": {
        "coordinates": [
          26.535463,
          38.187643
        ],
        "type": "Point"
      },
      "id": "uzunkuyu:38.187643:26.535463",
      "properties": {
        "alan_m2": 113120,
        "alarm": false,
        "arka_plan": true,
        "bolge": "uzunkuyu",
        "eski_tarih": "2026-09-18",
        "harita_katmani": "SAR_DUSUK_KANIT_ARKA_PLAN",
        "hedef_katmani": "ANA_250_PLUS",
        "kaynak": "coverage_blind_area_audit.json",
        "mahalle_yaklasik": "Mevki doğrulanmadı",
        "mikro_guclu_diagnostik": false,
        "mikro_saha_dogrulandi": false,
        "neden": "BULUT_GOLGE_KALICI",
        "onceki_sar_lokal_degisim_skor_db": null,
        "saha_dogrulanmis_yikim_onculu": false,
        "saha_gorevi": false,
        "saha_oncul_gorev_id": null,
        "saha_oncul_son_tarih": null,
        "sar_cevre_degisim_konservatif_db": 0.042,
        "sar_cevre_degisim_tepe_db": 0.751,
        "sar_kaynak_tipi": "BOLGESEL_RTC",
        "sar_lokal_degisim_skor_db": 0.221,
        "sar_mekansal_ayrim": "KARISIK_DUSUK_LOKALLIK",
        "sar_polarizasyon_uyumu": "CIFT_POL_ZAYIF",
        "temporal_durum": null,
        "yeni_tarih": "2026-09-24"
      },
      "type": "Feature"
    },
    {
      "geometry": {
        "coordinates": [
          26.620983,
          38.190628
        ],
        "type": "Point"
      },
      "id": "uzunkuyu:38.190628:26.620983",
      "properties": {
        "alan_m2": 22704,
        "alarm": false,
        "arka_plan": true,
        "bolge": "uzunkuyu",
        "eski_tarih": "2026-09-18",
        "harita_katmani": "SAR_DUSUK_KANIT_ARKA_PLAN",
        "hedef_katmani": "ANA_250_PLUS",
        "kaynak": "coverage_blind_area_audit.json",
        "mahalle_yaklasik": "Mevki doğrulanmadı",
        "mikro_guclu_diagnostik": false,
        "mikro_saha_dogrulandi": false,
        "neden": "BULUT_GOLGE_KALICI",
        "onceki_sar_lokal_degisim_skor_db": null,
        "saha_dogrulanmis_yikim_onculu": false,
        "saha_gorevi": false,
        "saha_oncul_gorev_id": null,
        "saha_oncul_son_tarih": null,
        "sar_cevre_degisim_konservatif_db": 0.372,
        "sar_cevre_degisim_tepe_db": 0.716,
        "sar_kaynak_tipi": "BOLGESEL_RTC",
        "sar_lokal_degisim_skor_db": 0.237,
        "sar_mekansal_ayrim": "KARISIK_DUSUK_LOKALLIK",
        "sar_polarizasyon_uyumu": "CIFT_POL_ZAYIF",
        "temporal_durum": null,
        "yeni_tarih": "2026-09-24"
      },
      "type": "Feature"
    },
    {
      "geometry": {
        "coordinates": [
          26.528708,
          38.203562
        ],
        "type": "Point"
      },
      "id": "uzunkuyu:38.203562:26.528708",
      "properties": {
        "alan_m2": 24404,
        "alarm": false,
        "arka_plan": true,
        "bolge": "uzunkuyu",
        "eski_tarih": "2026-09-18",
        "harita_katmani": "SAR_DUSUK_KANIT_ARKA_PLAN",
        "hedef_katmani": "ANA_250_PLUS",
        "kaynak": "coverage_blind_area_audit.json",
        "mahalle_yaklasik": "Mevki doğrulanmadı",
        "mikro_guclu_diagnostik": false,
        "mikro_saha_dogrulandi": false,
        "neden": "BULUT_GOLGE_KALICI",
        "onceki_sar_lokal_degisim_skor_db": null,
        "saha_dogrulanmis_yikim_onculu": false,
        "saha_gorevi": false,
        "saha_oncul_gorev_id": null,
        "saha_oncul_son_tarih": null,
        "sar_cevre_degisim_konservatif_db": 0.555,
        "sar_cevre_degisim_tepe_db": 0.983,
        "sar_kaynak_tipi": "BOLGESEL_RTC",
        "sar_lokal_degisim_skor_db": 0.484,
        "sar_mekansal_ayrim": "KARISIK_DUSUK_LOKALLIK",
        "sar_polarizasyon_uyumu": "CIFT_POL_ZAYIF",
        "temporal_durum": null,
        "yeni_tarih": "2026-09-24"
      },
      "type": "Feature"
    },
    {
      "geometry": {
        "coordinates": [
          26.637812,
          38.20519
        ],
        "type": "Point"
      },
      "id": "uzunkuyu:38.205190:26.637812",
      "properties": {
        "alan_m2": 46208,
        "alarm": false,
        "arka_plan": true,
        "bolge": "uzunkuyu",
        "eski_tarih": "2026-09-18",
        "harita_katmani": "SAR_DUSUK_KANIT_ARKA_PLAN",
        "hedef_katmani": "ANA_250_PLUS",
        "kaynak": "coverage_blind_area_audit.json",
        "mahalle_yaklasik": "Mevki doğrulanmadı",
        "mikro_guclu_diagnostik": false,
        "mikro_saha_dogrulandi": false,
        "neden": "KARISIK_GECERSIZLIK",
        "onceki_sar_lokal_degisim_skor_db": null,
        "saha_dogrulanmis_yikim_onculu": false,
        "saha_gorevi": false,
        "saha_oncul_gorev_id": null,
        "saha_oncul_son_tarih": null,
        "sar_cevre_degisim_konservatif_db": 0.3,
        "sar_cevre_degisim_tepe_db": 0.602,
        "sar_kaynak_tipi": "BOLGESEL_RTC",
        "sar_lokal_degisim_skor_db": 0.005,
        "sar_mekansal_ayrim": "KARISIK_DUSUK_LOKALLIK",
        "sar_polarizasyon_uyumu": "CIFT_POL_ZAYIF",
        "temporal_durum": null,
        "yeni_tarih": "2026-09-24"
      },
      "type": "Feature"
    },
    {
      "geometry": {
        "coordinates": [
          26.672959,
          38.29193
        ],
        "type": "Point"
      },
      "id": "uzunkuyu:38.291930:26.672959",
      "properties": {
        "alan_m2": 34006,
        "alarm": false,
        "arka_plan": true,
        "bolge": "uzunkuyu",
        "eski_tarih": "2026-09-18",
        "harita_katmani": "SAR_DUSUK_KANIT_ARKA_PLAN",
        "hedef_katmani": "ANA_250_PLUS",
        "kaynak": "coverage_blind_area_audit.json",
        "mahalle_yaklasik": "Mevki doğrulanmadı",
        "mikro_guclu_diagnostik": false,
        "mikro_saha_dogrulandi": false,
        "neden": "BULUT_GOLGE_KALICI",
        "onceki_sar_lokal_degisim_skor_db": null,
        "saha_dogrulanmis_yikim_onculu": false,
        "saha_gorevi": false,
        "saha_oncul_gorev_id": null,
        "saha_oncul_son_tarih": null,
        "sar_cevre_degisim_konservatif_db": 0.233,
        "sar_cevre_degisim_tepe_db": 0.464,
        "sar_kaynak_tipi": "BOLGESEL_RTC",
        "sar_lokal_degisim_skor_db": 0.266,
        "sar_mekansal_ayrim": "KARISIK_DUSUK_LOKALLIK",
        "sar_polarizasyon_uyumu": "CIFT_POL_ZAYIF",
        "temporal_durum": null,
        "yeni_tarih": "2026-09-24"
      },
      "type": "Feature"
    },
    {
      "geometry": {
        "coordinates": [
          26.643308,
          38.342129
        ],
        "type": "Point"
      },
      "id": "uzunkuyu:38.342129:26.643308",
      "properties": {
        "alan_m2": 24304,
        "alarm": false,
        "arka_plan": true,
        "bolge": "uzunkuyu",
        "eski_tarih": "2026-09-18",
        "harita_katmani": "SAR_DUSUK_KANIT_ARKA_PLAN",
        "hedef_katmani": "ANA_250_PLUS",
        "kaynak": "coverage_blind_area_audit.json",
        "mahalle_yaklasik": "Gülbahçe",
        "mikro_guclu_diagnostik": false,
        "mikro_saha_dogrulandi": false,
        "neden": "KARISIK_GECERSIZLIK",
        "onceki_sar_lokal_degisim_skor_db": null,
        "saha_dogrulanmis_yikim_onculu": false,
        "saha_gorevi": false,
        "saha_oncul_gorev_id": null,
        "saha_oncul_son_tarih": null,
        "sar_cevre_degisim_konservatif_db": 0.271,
        "sar_cevre_degisim_tepe_db": 1.465,
        "sar_kaynak_tipi": "BOLGESEL_RTC",
        "sar_lokal_degisim_skor_db": 0.207,
        "sar_mekansal_ayrim": "KARISIK_DUSUK_LOKALLIK",
        "sar_polarizasyon_uyumu": "CIFT_POL_ZAYIF",
        "temporal_durum": null,
        "yeni_tarih": "2026-09-24"
      },
      "type": "Feature"
    },
    {
      "geometry": {
        "coordinates": [
          26.677997,
          38.347556
        ],
        "type": "Point"
      },
      "id": "uzunkuyu:38.347556:26.677997",
      "properties": {
        "alan_m2": 19603,
        "alarm": false,
        "arka_plan": true,
        "bolge": "uzunkuyu",
        "eski_tarih": "2026-09-18",
        "harita_katmani": "SAR_GENIS_YUZEY_ARKA_PLAN",
        "hedef_katmani": "ANA_250_PLUS",
        "kaynak": "coverage_blind_area_audit.json",
        "mahalle_yaklasik": "Özbek",
        "mikro_guclu_diagnostik": false,
        "mikro_saha_dogrulandi": false,
        "neden": "KARISIK_GECERSIZLIK",
        "onceki_sar_lokal_degisim_skor_db": null,
        "saha_dogrulanmis_yikim_onculu": false,
        "saha_gorevi": false,
        "saha_oncul_gorev_id": null,
        "saha_oncul_son_tarih": null,
        "sar_cevre_degisim_konservatif_db": 0.097,
        "sar_cevre_degisim_tepe_db": 2.652,
        "sar_kaynak_tipi": "BOLGESEL_RTC",
        "sar_lokal_degisim_skor_db": 0.766,
        "sar_mekansal_ayrim": "TEK_POL_CEVRE_DEGISIMI",
        "sar_polarizasyon_uyumu": "CIFT_POL_ZAYIF",
        "temporal_durum": null,
        "yeni_tarih": "2026-09-24"
      },
      "type": "Feature"
    },
    {
      "geometry": {
        "coordinates": [
          26.517718,
          38.388982
        ],
        "type": "Point"
      },
      "id": "uzunkuyu:38.388982:26.517718",
      "properties": {
        "alan_m2": 76013,
        "alarm": false,
        "arka_plan": true,
        "bolge": "uzunkuyu",
        "eski_tarih": "2026-09-18",
        "harita_katmani": "SAR_DUSUK_KANIT_ARKA_PLAN",
        "hedef_katmani": "ANA_250_PLUS",
        "kaynak": "coverage_blind_area_audit.json",
        "mahalle_yaklasik": "Ildır",
        "mikro_guclu_diagnostik": false,
        "mikro_saha_dogrulandi": false,
        "neden": "BULUT_GOLGE_KALICI",
        "onceki_sar_lokal_degisim_skor_db": null,
        "saha_dogrulanmis_yikim_onculu": false,
        "saha_gorevi": false,
        "saha_oncul_gorev_id": null,
        "saha_oncul_son_tarih": null,
        "sar_cevre_degisim_konservatif_db": 0.512,
        "sar_cevre_degisim_tepe_db": 0.545,
        "sar_kaynak_tipi": "BOLGESEL_RTC",
        "sar_lokal_degisim_skor_db": 0.369,
        "sar_mekansal_ayrim": "KARISIK_DUSUK_LOKALLIK",
        "sar_polarizasyon_uyumu": "CIFT_POL_ZAYIF",
        "temporal_durum": null,
        "yeni_tarih": "2026-09-24"
      },
      "type": "Feature"
    }
  ],
  "layer_counts": {
    "SAR_DUSUK_KANIT_ARKA_PLAN": 19,
    "SAR_GENIS_YUZEY_ARKA_PLAN": 3,
    "SAR_GUCLU_LOKAL": 1,
    "SAR_MIKRO_DIAGNOSTIK": 1,
    "SAR_SAHA_ONCUL": 1
  },
  "mikro_aralik_m2": [
    150,
    249
  ],
  "name": "sentinel1_rtc_ground_diagnostics",
  "not": "Harita katmani diagnostiktir; Sentinel-1 geri sacilim degisimi tek basina insaat/kazi kaniti, alarm, saha gorevi, adres veya parsel dogrulamasi degildir.",
  "region_counts": {
    "cesme": 9,
    "gulbahce": 8,
    "uzunkuyu": 8
  },
  "rtc_pair_dates": {
    "cesme": {
      "eski_tarih": "2026-09-18",
      "yeni_tarih": "2026-09-24"
    },
    "gulbahce": {
      "eski_tarih": "2026-09-18",
      "yeni_tarih": "2026-09-24"
    },
    "uzunkuyu": {
      "eski_tarih": "2026-09-18",
      "yeni_tarih": "2026-09-24"
    }
  },
  "saha_gorevi": false,
  "type": "FeatureCollection"
}
